EARTHCARE               
1 59908U 24101A   24268.59350229  .00027135  00000+0  37393-3 0  9991
2 59908  96.9899  34.1466 0004620 101.2752 258.9023 15.57188080 18446
